ONEWEB-0578             
1 56067U 23043X   24327.14153000 -.00000027  00000+0 -97218-4 0  9999
2 56067  87.9316 357.9312 0001802  97.0198 263.1141 13.21825861 83573
ONEWEB-0579             
1 56068U 23043Y   24326.52647127 -.00000422  00000+0 -10540-2 0  9999
2 56068  87.9308 358.0453 0002011  85.6722 274.4641 13.21824590 83503
ONEWEB-0581             
1 56069U 23043Z   24327.04515563  .00000104  00000+0  23947-3 0  9997
2 56069  87.9088 342.7826 0002343  90.4070 269.7330 13.16592607 84587
ONEWEB-0609             
1 56070U 23043AA  24327.15659790 -.00000091  00000+0 -27700-3 0  9990
2 56070  87.9096  13.0942 0001718  95.5936 264.5390 13.15550767 82135
ONEWEB-0613             
1 56071U 23043AB  24327.15184651 -.00000032  00000+0 -11900-3 0  9990
2 56071  87.9100  13.0974 0001834  82.9519 277.1819 13.15546482 82138
ONEWEB-0630             
1 56072U 23043AC  24327.14707952  .00000012  00000+0 -27500-5 0  9997
2 56072  87.9094  13.0833 0001771  83.6927 276.4405 13.15546223 82121
ONEWEB-0632             
1 56073U 23043AD  24327.14233238 -.00000018  00000+0 -82315-4 0  9990
2 56073  87.9102  13.1045 0002148  95.1633 264.9743 13.15545662 82122
ONEWEB-0633             
1 56074U 23043AE  24327.05993652  .00000126  00000+0  29983-3 0  9993
2 56074  87.9092  13.0958 0001583  81.4002 278.7307 13.15549189 82096
